[
    {
        "Altitude(m)": 604983.0530252558,
        "Argument of Periapsis(deg)": 0.0,
        "Eccentricity": 0.0,
        "Inclination(deg)": 60.0,
        "Latitude(deg)": -0.0926947187164359,
        "Longitude(deg)": -24.916083473553105,
        "Mean Anomaly(deg)": -180.0,
        "RAAN(deg)": 255.0,
        "Satellite Name": "Test1 1133",
        "Satellite Number": 1133,
        "Semi-Major Axis(m)": 6980739.136638005,
        "Time(s)": 0
    },
    {
        "Altitude(m)": 605055.3328092752,
        "Argument of Periapsis(deg)": 0.00010418945913296404,
        "Eccentricity": 0.0,
        "Inclination(deg)": 60.0,
        "Latitude(deg)": -0.6331042247317312,
        "Longitude(deg)": -24.647957828010412,
        "Mean Anomaly(deg)": -179.37989385453815,
        "RAAN(deg)": 254.99957995086027,
        "Satellite Name": "Test1 1133",
        "Satellite Number": 1133,
        "Semi-Major Axis(m)": 6980739.136638005,
        "Time(s)": 10
    }
]